HADES-SA (SPINNYONE)    
1 68446U 26067AG  26118.85556686  .00017794  00000+0  89199-3 0  9992
2 68446  97.4375  77.9651 0004952 234.1858 125.8916 15.17397495  4446
TRANSPORTER-16 OBJECT AH
1 68447U 26067AH  26118.83401970  .00008528  00000+0  41967-3 0  9992
2 68447  97.4487  78.0316 0002354 122.5535 237.5927 15.18238324  4457
HAWK-14A                
1 68448U 26067AJ  26118.84348108  .00005073  00000+0  25369-3 0  9997
2 68448  97.4574  78.0671 0001736 224.1894 135.9202 15.17875542  4454
TRANSPORTER-16 OBJECT AK
1 68449U 26067AK  26118.85002213  .00007703  00000+0  38861-3 0  9996
2 68449  97.4478  78.0073 0002250 223.9187 136.1867 15.17401663  4457
TRANSPORTER-16 OBJECT AL
1 68450U 26067AL  26118.83608731  .00008556  00000+0  42236-3 0  9991
2 68450  97.4514  78.0395 0002466 138.9693 221.1727 15.18128708  4450
TRANSPORTER-16 OBJECT AM
1 68451U 26067AM  26118.83491235  .00008688  00000+0  42803-3 0  9997
2 68451  97.4473  78.0245 0002169 124.9962 235.1476 15.18192382  4458
TRANSPORTER-16 OBJECT AN
1 68452U 26067AN  26118.84897182  .00008259  00000+0  41563-3 0  9996
2 68452  97.4514  78.0230 0002460 211.7828 148.3258 15.17462695  4458
TRANSPORTER-16 OBJECT AP
1 68453U 26067AP  26118.83647647  .00008304  00000+0  41027-3 0  9991
2 68453  97.4517  78.0405 0002557 144.7331 215.4072 15.18107395  4451
TRANSPORTER-16 OBJECT AQ
1 68454U 26067AQ  26118.85457693  .00007027  00000+0  35726-3 0  9994
2 68454  97.4540  78.0251 0003897 219.2232 140.8720 15.17156544  4453
TRANSPORTER-16 OBJECT AR
1 68455U 26067AR  26118.85758053  .00004693  00000+0  24121-3 0  9992
2 68455  97.4542  78.0205 0004278 220.1414 139.9503 15.16942069  4454
PARUS-6U1               
1 68456U 26067AS  26118.85717072  .00005910  00000+0  30247-3 0  9998
2 68456  97.4517  78.0114 0004207 220.1186 139.9737 15.16990580  4454
TRANSPORTER-16 OBJECT AT
1 68457U 26067AT  26118.82957697  .00010793  00000+0  52561-3 0  9993
2 68457  97.4512  78.0463 0003208 121.0254 239.1296 15.18534004  4452
SAL-E                   
1 68458U 26067AU  26118.85727870  .00008139  00000+0  41455-3 0  9996
2 68458  97.4443  77.9848 0004140 232.6498 127.4359 15.17042542  4455
TRANSPORTER-16 OBJECT AV
1 68459U 26067AV  26118.85884977  .00006137  00000+0  31464-3 0  9994
2 68459  97.4497  78.0023 0004541 222.3713 137.7170 15.16910819  4458
COSMO                   
1 68460U 26067AW  26118.85821951  .00007350  00000+0  37538-3 0  9995
2 68460  97.4464  77.9918 0004376 227.3221 132.7644 15.16979856  4457
TRANSPORTER-16 OBJECT AX
1 68461U 26067AX  26118.84859730  .00008260  00000+0  41543-3 0  9993
2 68461  97.4517  78.0250 0002344 212.9111 147.1977 15.17483231  4456
