[{"OBJECT_NAME":"HADES-SA (SPINNYONE)","OBJECT_ID":"2026-067AG","EPOCH":"2026-04-28T20:32:00.976704","MEAN_MOTION":15.17397495,"ECCENTRICITY":0.0004952,"INCLINATION":97.4375,"RA_OF_ASC_NODE":77.9651,"ARG_OF_PERICENTER":234.1858,"MEAN_ANOMALY":125.8916,"EPHEMERIS_TYPE":0,"CLASSIFICATION_TYPE":"U","NORAD_CAT_ID":68446,"ELEMENT_SET_NO":999,"REV_AT_EPOCH":444,"BSTAR":0.00089199,"MEAN_MOTION_DOT":0.00017794,"MEAN_MOTION_DDOT":0},{"OBJECT_NAME":"TRANSPORTER-16 OBJECT AH","OBJECT_ID":"2026-067AH","EPOCH":"2026-04-28T20:00:59.302080","MEAN_MOTION":15.18238324,"ECCENTRICITY":0.0002354,"INCLINATION":97.4487,"RA_OF_ASC_NODE":78.0316,"ARG_OF_PERICENTER":122.5535,"MEAN_ANOMALY":237.5927,"EPHEMERIS_TYPE":0,"CLASSIFICATION_TYPE":"U","NORAD_CAT_ID":68447,"ELEMENT_SET_NO":999,"REV_AT_EPOCH":445,"BSTAR":0.00041967,"MEAN_MOTION_DOT":8.528e-5,"MEAN_MOTION_DDOT":0},{"OBJECT_NAME":"HAWK-14A","OBJECT_ID":"2026-067AJ","EPOCH":"2026-04-28T20:14:36.765312","MEAN_MOTION":15.17875542,"ECCENTRICITY":0.0001736,"INCLINATION":97.4574,"RA_OF_ASC_NODE":78.0671,"ARG_OF_PERICENTER":224.1894,"MEAN_ANOMALY":135.9202,"EPHEMERIS_TYPE":0,"CLASSIFICATION_TYPE":"U","NORAD_CAT_ID":68448,"ELEMENT_SET_NO":999,"REV_AT_EPOCH":445,"BSTAR":0.00025369,"MEAN_MOTION_DOT":5.073e-5,"MEAN_MOTION_DDOT":0},{"OBJECT_NAME":"TRANSPORTER-16 OBJECT AK","OBJECT_ID":"2026-067AK","EPOCH":"2026-04-28T20:24:01.912032","MEAN_MOTION":15.17401663,"ECCENTRICITY":0.000225,"INCLINATION":97.4478,"RA_OF_ASC_NODE":78.0073,"ARG_OF_PERICENTER":223.9187,"MEAN_ANOMALY":136.1867,"EPHEMERIS_TYPE":0,"CLASSIFICATION_TYPE":"U","NORAD_CAT_ID":68449,"ELEMENT_SET_NO":999,"REV_AT_EPOCH":445,"BSTAR":0.00038861,"MEAN_MOTION_DOT":7.703e-5,"MEAN_MOTION_DDOT":0},{"OBJECT_NAME":"TRANSPORTER-16 OBJECT AL","OBJECT_ID":"2026-067AL","EPOCH":"2026-04-28T20:03:57.943584","MEAN_MOTION":15.18128708,"ECCENTRICITY":0.0002466,"INCLINATION":97.4514,"RA_OF_ASC_NODE":78.0395,"ARG_OF_PERICENTER":138.9693,"MEAN_ANOMALY":221.1727,"EPHEMERIS_TYPE":0,"CLASSIFICATION_TYPE":"U","NORAD_CAT_ID":68450,"ELEMENT_SET_NO":999,"REV_AT_EPOCH":445,"BSTAR":0.00042236,"MEAN_MOTION_DOT":8.556e-5,"MEAN_MOTION_DDOT":0},{"OBJECT_NAME":"TRANSPORTER-16 OBJECT AM","OBJECT_ID":"2026-067AM","EPOCH":"2026-04-28T20:02:16.427040","MEAN_MOTION":15.18192382,"ECCENTRICITY":0.0002169,"INCLINATION":97.4473,"RA_OF_ASC_NODE":78.0245,"ARG_OF_PERICENTER":124.9962,"MEAN_ANOMALY":235.1476,"EPHEMERIS_TYPE":0,"CLASSIFICATION_TYPE":"U","NORAD_CAT_ID":68451,"ELEMENT_SET_NO":999,"REV_AT_EPOCH":445,"BSTAR":0.00042803,"MEAN_MOTION_DOT":8.688e-5,"MEAN_MOTION_DDOT":0},{"OBJECT_NAME":"TRANSPORTER-16 OBJECT AN","OBJECT_ID":"2026-067AN","EPOCH":"2026-04-28T20:22:31.165248","MEAN_MOTION":15.17462695,"ECCENTRICITY":0.000246,"INCLINATION":97.4514,"RA_OF_ASC_NODE":78.023,"ARG_OF_PERICENTER":211.7828,"MEAN_ANOMALY":148.3258,"EPHEMERIS_TYPE":0,"CLASSIFICATION_TYPE":"U","NORAD_CAT_ID":68452,"ELEMENT_SET_NO":999,"REV_AT_EPOCH":445,"BSTAR":0.00041563,"MEAN_MOTION_DOT":8.259e-5,"MEAN_MOTION_DDOT":0},{"OBJECT_NAME":"TRANSPORTER-16 OBJECT AP","OBJECT_ID":"2026-067AP","EPOCH":"2026-04-28T20:04:31.567008","MEAN_MOTION":15.18107395,"ECCENTRICITY":0.0002557,"INCLINATION":97.4517,"RA_OF_ASC_NODE":78.0405,"ARG_OF_PERICENTER":144.7331,"MEAN_ANOMALY":215.4072,"EPHEMERIS_TYPE":0,"CLASSIFICATION_TYPE":"U","NORAD_CAT_ID":68453,"ELEMENT_SET_NO":999,"REV_AT_EPOCH":445,"BSTAR":0.00041027,"MEAN_MOTION_DOT":8.304e-5,"MEAN_MOTION_DDOT":0},{"OBJECT_NAME":"TRANSPORTER-16 OBJECT AQ","OBJECT_ID":"2026-067AQ","EPOCH":"2026-04-28T20:30:35.446752","MEAN_MOTION":15.17156544,"ECCENTRICITY":0.0003897,"INCLINATION":97.454,"RA_OF_ASC_NODE":78.0251,"ARG_OF_PERICENTER":219.2232,"MEAN_ANOMALY":140.872,"EPHEMERIS_TYPE":0,"CLASSIFICATION_TYPE":"U","NORAD_CAT_ID":68454,"ELEMENT_SET_NO":999,"REV_AT_EPOCH":445,"BSTAR":0.00035726,"MEAN_MOTION_DOT":7.027e-5,"MEAN_MOTION_DDOT":0},{"OBJECT_NAME":"TRANSPORTER-16 OBJECT AR","OBJECT_ID":"2026-067AR","EPOCH":"2026-04-28T20:34:54.957792","MEAN_MOTION":15.16942069,"ECCENTRICITY":0.0004278,"INCLINATION":97.4542,"RA_OF_ASC_NODE":78.0205,"ARG_OF_PERICENTER":220.1414,"MEAN_ANOMALY":139.9503,"EPHEMERIS_TYPE":0,"CLASSIFICATION_TYPE":"U","NORAD_CAT_ID":68455,"ELEMENT_SET_NO":999,"REV_AT_EPOCH":445,"BSTAR":0.00024121,"MEAN_MOTION_DOT":4.693e-5,"MEAN_MOTION_DDOT":0},{"OBJECT_NAME":"PARUS-6U1","OBJECT_ID":"2026-067AS","EPOCH":"2026-04-28T20:34:19.550208","MEAN_MOTION":15.1699058,"ECCENTRICITY":0.0004207,"INCLINATION":97.4517,"RA_OF_ASC_NODE":78.0114,"ARG_OF_PERICENTER":220.1186,"MEAN_ANOMALY":139.9737,"EPHEMERIS_TYPE":0,"CLASSIFICATION_TYPE":"U","NORAD_CAT_ID":68456,"ELEMENT_SET_NO":999,"REV_AT_EPOCH":445,"BSTAR":0.00030247,"MEAN_MOTION_DOT":5.91e-5,"MEAN_MOTION_DDOT":0},{"OBJECT_NAME":"TRANSPORTER-16 OBJECT AT","OBJECT_ID":"2026-067AT","EPOCH":"2026-04-28T19:54:35.450208","MEAN_MOTION":15.18534004,"ECCENTRICITY":0.0003208,"INCLINATION":97.4512,"RA_OF_ASC_NODE":78.0463,"ARG_OF_PERICENTER":121.0254,"MEAN_ANOMALY":239.1296,"EPHEMERIS_TYPE":0,"CLASSIFICATION_TYPE":"U","NORAD_CAT_ID":68457,"ELEMENT_SET_NO":999,"REV_AT_EPOCH":445,"BSTAR":0.00052561,"MEAN_MOTION_DOT":0.00010793,"MEAN_MOTION_DDOT":0},{"OBJECT_NAME":"SAL-E","OBJECT_ID":"2026-067AU","EPOCH":"2026-04-28T20:34:28.879680","MEAN_MOTION":15.17042542,"ECCENTRICITY":0.000414,"INCLINATION":97.4443,"RA_OF_ASC_NODE":77.9848,"ARG_OF_PERICENTER":232.6498,"MEAN_ANOMALY":127.4359,"EPHEMERIS_TYPE":0,"CLASSIFICATION_TYPE":"U","NORAD_CAT_ID":68458,"ELEMENT_SET_NO":999,"REV_AT_EPOCH":445,"BSTAR":0.00041455,"MEAN_MOTION_DOT":8.139e-5,"MEAN_MOTION_DDOT":0},{"OBJECT_NAME":"TRANSPORTER-16 OBJECT AV","OBJECT_ID":"2026-067AV","EPOCH":"2026-04-28T20:36:44.620128","MEAN_MOTION":15.16910819,"ECCENTRICITY":0.0004541,"INCLINATION":97.4497,"RA_OF_ASC_NODE":78.0023,"ARG_OF_PERICENTER":222.3713,"MEAN_ANOMALY":137.717,"EPHEMERIS_TYPE":0,"CLASSIFICATION_TYPE":"U","NORAD_CAT_ID":68459,"ELEMENT_SET_NO":999,"REV_AT_EPOCH":445,"BSTAR":0.00031464,"MEAN_MOTION_DOT":6.137e-5,"MEAN_MOTION_DDOT":0},{"OBJECT_NAME":"COSMO","OBJECT_ID":"2026-067AW","EPOCH":"2026-04-28T20:35:50.165664","MEAN_MOTION":15.16979856,"ECCENTRICITY":0.0004376,"INCLINATION":97.4464,"RA_OF_ASC_NODE":77.9918,"ARG_OF_PERICENTER":227.3221,"MEAN_ANOMALY":132.7644,"EPHEMERIS_TYPE":0,"CLASSIFICATION_TYPE":"U","NORAD_CAT_ID":68460,"ELEMENT_SET_NO":999,"REV_AT_EPOCH":445,"BSTAR":0.00037538,"MEAN_MOTION_DOT":7.35e-5,"MEAN_MOTION_DDOT":0},{"OBJECT_NAME":"TRANSPORTER-16 OBJECT AX","OBJECT_ID":"2026-067AX","EPOCH":"2026-04-28T20:21:58.806720","MEAN_MOTION":15.17483231,"ECCENTRICITY":0.0002344,"INCLINATION":97.4517,"RA_OF_ASC_NODE":78.025,"ARG_OF_PERICENTER":212.9111,"MEAN_ANOMALY":147.1977,"EPHEMERIS_TYPE":0,"CLASSIFICATION_TYPE":"U","NORAD_CAT_ID":68461,"ELEMENT_SET_NO":999,"REV_AT_EPOCH":445,"BSTAR":0.00041543,"MEAN_MOTION_DOT":8.26e-5,"MEAN_MOTION_DDOT":0}]
